IRIDIUM 112             
1 41925U 17003J   25006.38121907  .00000486  00000+0  16650-3 0  9994
2 41925  86.3980 308.4418 0002191  77.5209 282.6231 14.34221915417769
IRIDIUM 111             
1 41926U 17003K   25006.36854563  .00000764  00000+0  26575-3 0  9990
2 41926  86.3979 308.5060 0001989  85.5923 274.5500 14.34213282417743
IRIDIUM 113             
1 42803U 17039A   25006.55781325 -.00000022  00000+0 -15068-4 0  9995
2 42803  86.4005 182.2412 0001778  76.7375 283.4019 14.34216520395709
IRIDIUM 123             
1 42804U 17039B   25006.59929462  .00000267  00000+0  88127-4 0  9991
2 42804  86.3971 213.6594 0001827  93.2205 266.9199 14.34216479394473
IRIDIUM 120             
1 42805U 17039C   25006.55147088 -.00000016  00000+0 -12777-4 0  9996
2 42805  86.3993 182.0948 0001971 101.8166 258.3251 14.34217584395699
IRIDIUM 115             
1 42806U 17039D   25006.55085094  .00000401  00000+0  11325-3 0  9998
2 42806  86.4525 182.1498 0001523  97.8060 262.3313 14.43278295398304
IRIDIUM 118             
1 42807U 17039E   25006.56123835  .00000022  00000+0  70430-6 0  9990
2 42807  86.3970 213.6757 0002014  87.7041 272.4385 14.34216180394468
IRIDIUM 117             
1 42808U 17039F   25006.58026016  .00000244  00000+0  79930-4 0  9994
2 42808  86.3969 213.6304 0001688  94.0463 266.0925 14.34219457394492
